     2.10           GLONASS NAV DATA                        RINEX VERSION / TYPE
JPS2RIN v.2.0.146   JAVAD GNSS          20190307 122245 UTC PGM / RUN BY / DATE
  2019     3     7   -9.313225746155D-10                    CORR TO SYSTEM TIME
    18                                                      LEAP SECONDS
                                                            END OF HEADER
 4 19  3  7 10 45  0.0 2.977289259434D-04 9.094947017729D-13 3.783000000000D+04
    2.390150927734D+04-2.928390502930D-01 4.656612873077D-09 0.000000000000D+00
    8.501323730469D+03-2.545557022095D-01 2.793967723846D-09 6.000000000000D+00
   -2.567848144531D+03-3.548454284668D+00 0.000000000000D+00 0.000000000000D+00
 5 19  3  7 10 45  0.0 2.355407923460D-05 9.094947017729D-13 3.783000000000D+04
    2.150089062500D+04 1.839455604553D+00 2.793967723846D-09 0.000000000000D+00
   -2.360170898438D+02 4.039611816406D-01 2.793967723846D-09 1.000000000000D+00
    1.371619580078D+04-2.880213737488D+00-1.862645149231D-09 0.000000000000D+00
 6 19  3  7 10 45  0.0 1.502968370914D-04 0.000000000000D+00 3.783000000000D+04
    5.191937500000D+03 3.016254425049D+00-9.313225746155D-10 0.000000000000D+00
   -1.001245507813D+04 8.470869064331D-01 0.000000000000D+00-4.000000000000D+00
    2.286755712891D+04-3.162069320679D-01-1.862645149231D-09 0.000000000000D+00
 7 19  3  7 10 45  0.0-5.933083593845D-05 0.000000000000D+00 3.933000000000D+04
   -1.276873876953D+04 2.320269584656D+00-3.725290298462D-09 0.000000000000D+00
   -1.285038867188D+04 8.140563964844D-01-9.313225746155D-10 5.000000000000D+00
    1.800959472656D+04 2.226546287537D+00-9.313225746155D-10 0.000000000000D+00
15 19  3  7 10 45  0.0 1.004617661238D-04 0.000000000000D+00 3.783000000000D+04
    1.377540673828D+04-2.194840431213D+00 9.313225746155D-10 0.000000000000D+00
    1.031947753906D+03 1.949155807495D+00 9.313225746155D-10 0.000000000000D+00
    2.145651904297D+04 1.317037582397D+00-2.793967723846D-09 0.000000000000D+00
16 19  3  7 10 45  0.0 1.084990799427D-05-9.094947017729D-13 3.783000000000D+04
    1.984278027344D+04-1.002460479736D+00 9.313225746155D-10 0.000000000000D+00
   -1.298086083984D+04 7.892875671387D-01 2.793967723846D-09-1.000000000000D+00
    9.213026367188D+03 3.272408485413D+00-9.313225746155D-10 0.000000000000D+00
17 19  3  7 10 45  0.0 2.101128920913D-04 2.728484105319D-12 3.858000000000D+04
    6.453810058594D+03 2.604360580444D-01 4.656612873077D-09 0.000000000000D+00
    2.462938818359D+04 1.926155090332D-01 0.000000000000D+00 4.000000000000D+00
   -1.778716308594D+03 3.579289436340D+00 0.000000000000D+00 0.000000000000D+00
23 19  3  7 10 45  0.0 2.137878909707D-04 1.818989403546D-12 3.783000000000D+04
   -8.680632324219D+03-6.258220672607D-01-9.313225746155D-10 0.000000000000D+00
    7.986833007813D+03-3.037631988525D+00-1.862645149231D-09 3.000000000000D+00
    2.261433154297D+04 8.332128524780D-01-1.862645149231D-09 0.000000000000D+00
24 19  3  7 10 45  0.0-1.779338344932D-04 0.000000000000D+00 3.783000000000D+04
   -1.613865234375D+03-2.323074340820D-01 1.862645149231D-09 0.000000000000D+00
    2.136649853516D+04-1.892032623291D+00-9.313225746155D-10 2.000000000000D+00
    1.380494970703D+04 2.899133682251D+00-1.862645149231D-09 0.000000000000D+00
 4 19  3  7 11 15  0.0 2.977317199111D-04 9.094947017729D-13 3.963000000000D+04
    2.258661035156D+04-1.164567947388D+00 5.587935447693D-09 0.000000000000D+00
    7.928694335938D+03-3.402318954468D-01 1.862645149231D-09 6.000000000000D+00
   -8.772999023438D+03-3.301304817200D+00 0.000000000000D+00 0.000000000000D+00
 5 19  3  7 11 15  0.0 2.355314791203D-05 9.094947017729D-13 3.963000000000D+04
    2.419079150391D+04 1.116892814636D+00 3.725290298462D-09 0.000000000000D+00
    1.113627929688D+02 1.177597045898D-02 2.793967723846D-09 1.000000000000D+00
    8.068243652344D+03-3.354547500610D+00-1.862645149231D-09 0.000000000000D+00
 6 19  3  7 11 15  0.0 1.502977684140D-04 0.000000000000D+00 3.963000000000D+04
    1.057238525391D+04 2.911155700684D+00 0.000000000000D+00 0.000000000000D+00
   -8.907662109375D+03 3.788833618164D-01 9.313225746155D-10-4.000000000000D+00
    2.142069042969D+04-1.281040191650D+00-1.862645149231D-09 0.000000000000D+00
 7 19  3  7 11 15  0.0-5.933176726103D-05 0.000000000000D+00 3.963000000000D+04
   -8.078114746094D+03 2.853188514709D+00-2.793967723846D-09 0.000000000000D+00
   -1.160641210938D+04 5.377931594849D-01 0.000000000000D+00 5.000000000000D+00
    2.127260791016D+04 1.375588417053D+00-1.862645149231D-09 0.000000000000D+00
14 19  3  7 11 15  0.0 3.665499389172D-05 0.000000000000D+00 3.963000000000D+04
   -3.542058105469D+03-1.494832992554D+00 0.000000000000D+00 0.000000000000D+00
    1.772330419922D+04 1.961112022400D+00-1.862645149231D-09-7.000000000000D+00
    1.800302001953D+04-2.225970268250D+00-1.862645149231D-09 0.000000000000D+00
15 19  3  7 11 15  0.0 1.004626974463D-04 9.094947017729D-13 3.963000000000D+04
    9.947818359375D+03-2.016366958618D+00 9.313225746155D-10 0.000000000000D+00
    4.981032226563D+03 2.408735275269D+00 0.000000000000D+00 0.000000000000D+00
    2.296838330078D+04 3.519687652588D-01-2.793967723846D-09 0.000000000000D+00
16 19  3  7 11 15  0.0 1.084804534912D-05-9.094947017729D-13 3.963000000000D+04
    1.769432275391D+04-1.340693473816D+00 9.313225746155D-10 0.000000000000D+00
   -1.091192333984D+04 1.512581825256D+00 1.862645149231D-09-1.000000000000D+00
    1.466755664063D+04 2.748552322388D+00-1.862645149231D-09 0.000000000000D+00
17 19  3  7 11 15  0.0 2.101184800267D-04 2.728484105319D-12 3.963000000000D+04
    6.699894531250D+03-2.610778808594D-02 3.725290298462D-09 0.000000000000D+00
    2.418865771484D+04-6.671934127808D-01-9.313225746155D-10 4.000000000000D+00
    4.649559082031D+03 3.516945838928D+00-9.313225746155D-10 0.000000000000D+00
23 19  3  7 11 15  0.0 2.137916162610D-04 1.818989403546D-12 3.963000000000D+04
   -1.025025048828D+04-1.107086181641D+00-1.862645149231D-09 0.000000000000D+00
    2.519575683594D+03-2.985238075256D+00-9.313225746155D-10 3.000000000000D+00
    2.322049169922D+04-1.640491485596D-01-1.862645149231D-09 0.000000000000D+00
24 19  3  7 11 15  0.0-1.779356971383D-04 0.000000000000D+00 3.963000000000D+04
   -2.470778320313D+03-7.383661270142D-01 0.000000000000D+00 0.000000000000D+00
    1.744154589844D+04-2.424692153931D+00-1.862645149231D-09 2.000000000000D+00
    1.842092236328D+04 2.196341514587D+00-1.862645149231D-09 0.000000000000D+00
 5 19  3  7 11 45  0.0 2.355407923460D-05 9.094947017729D-13 4.143000000000D+04
    2.543471484375D+04 2.501354217529D-01 5.587935447693D-09 0.000000000000D+00
   -6.735986328125D+01-1.713066101074D-01 1.862645149231D-09 1.000000000000D+00
    1.795905273438D+03-3.569423675537D+00-9.313225746155D-10 0.000000000000D+00
 6 19  3  7 11 45  0.0 1.502986997366D-04 0.000000000000D+00 4.143000000000D+04
    1.549429785156D+04 2.511253356934D+00 1.862645149231D-09 0.000000000000D+00
   -8.621994628906D+03-4.550933837891D-02 1.862645149231D-09-4.000000000000D+00
    1.831526855469D+04-2.147036552429D+00-1.862645149231D-09 0.000000000000D+00
 7 19  3  7 11 45  0.0-5.933176726103D-05 0.000000000000D+00 4.143000000000D+04
   -2.655955078125D+03 3.122937202454D+00-1.862645149231D-09 0.000000000000D+00
   -1.099780615234D+04 1.232204437256D-01 0.000000000000D+00 5.000000000000D+00
    2.289792382813D+04 4.185886383057D-01-1.862645149231D-09 0.000000000000D+00
 9 19  3  7 11 45  0.0 5.783978849649D-05 2.728484105319D-12 4.194000000000D+04
    1.434435253906D+04-2.574186325073D-01 9.313225746155D-10 0.000000000000D+00
   -2.104284326172D+04 1.540584564209D-01 2.793967723846D-09-2.000000000000D+00
    1.966455566406D+03 3.537548065186D+00 0.000000000000D+00 0.000000000000D+00
14 19  3  7 11 45  0.0 3.665592521429D-05 0.000000000000D+00 4.143000000000D+04
   -5.659529296875D+03-8.611068725586D-01 0.000000000000D+00 0.000000000000D+00
    2.098515087891D+04 1.616972923279D+00-1.862645149231D-09-7.000000000000D+00
    1.335219873047D+04-2.908093452454D+00-9.313225746155D-10 0.000000000000D+00
15 19  3  7 11 45  0.0 1.004636287689D-04 9.094947017729D-13 4.143000000000D+04
    6.645687500000D+03-1.623672485352D+00 9.313225746155D-10 0.000000000000D+00
    9.570088867188D+03 2.647251129150D+00 0.000000000000D+00 0.000000000000D+00
    2.270739257813D+04-6.400575637817D-01-2.793967723846D-09 0.000000000000D+00
16 19  3  7 11 45  0.0 1.084618270397D-05 0.000000000000D+00 4.143000000000D+04
    1.517833740234D+04-1.410405158997D+00 1.862645149231D-09 0.000000000000D+00
   -7.559079101563D+03 2.196761131287D+00 9.313225746155D-10-1.000000000000D+00
    1.897930126953D+04 2.011077880859D+00-2.793967723846D-09 0.000000000000D+00
17 19  3  7 11 45  0.0 2.101249992847D-04 2.728484105319D-12 4.143000000000D+04
    6.235206054688D+03-5.190286636353D-01 1.862645149231D-09 0.000000000000D+00
    2.231416357422D+04-1.383383750916D+00-1.862645149231D-09 4.000000000000D+00
    1.071907177734D+04 3.183276176453D+00-9.313225746155D-10 0.000000000000D+00
18 19  3  7 11 45  0.0 3.526173532009D-05 9.094947017729D-13 4.200000000000D+04
    1.395313867188D+04 5.886449813843D-01 4.656612873077D-09 0.000000000000D+00
    2.037798388672D+04 6.597938537598D-01-9.313225746155D-10-3.000000000000D+00
   -6.228189453125D+03 3.472027778625D+00 0.000000000000D+00 0.000000000000D+00
23 19  3  7 11 45  0.0 2.137962728739D-04 1.818989403546D-12 4.233000000000D+04
   -1.259409130859D+04-1.468891143799D+00-3.725290298462D-09 0.000000000000D+00
   -2.583770996094D+03-2.640585899353D+00 0.000000000000D+00 3.000000000000D+00
    2.203146142578D+04-1.148500442505D+00-1.862645149231D-09 0.000000000000D+00
24 19  3  7 11 45  0.0-1.779366284609D-04 0.000000000000D+00 4.143000000000D+04
   -4.306853515625D+03-1.302080154419D+00-9.313225746155D-10 0.000000000000D+00
    1.281173925781D+04-2.668682098389D+00-9.313225746155D-10 2.000000000000D+00
    2.160941796875D+04 1.323394775391D+00-1.862645149231D-09 0.000000000000D+00
14 19  3  7 10 45  0.0 3.665499389172D-05 0.000000000000D+00 3.783000000000D+04
   -3.003164062500D+02-2.091636657715D+00 9.313225746155D-10 0.000000000000D+00
    1.409498779297D+04 2.023741722107D+00-9.313225746155D-10-7.000000000000D+00
    2.126232275391D+04-1.372011184692D+00-1.862645149231D-09 0.000000000000D+00
